CCSDS_OMM_VERS = 2.0
CREATION_DATE  = 
ORIGINATOR     = 

OBJECT_NAME    = 2025-313Z
OBJECT_ID      = 2025-313Z
CENTER_NAME    = EARTH
REF_FRAME      = TEME
TIME_SYSTEM    = UTC
MEAN_ELEMENT_THEORY = SGP/SGP4

EPOCH          = 2026-01-16T23:11:29.190048
MEAN_MOTION    = 15.20028620
ECCENTRICITY   = .00158
INCLINATION    = 97.4116
RA_OF_ASC_NODE = 94.0896
ARG_OF_PERICENTER = 166.1571
MEAN_ANOMALY   = 194.0100

EPHEMERIS_TYPE = 0
CLASSIFICATION_TYPE = U
NORAD_CAT_ID   = 67271
ELEMENT_SET_NO = 999
REV_AT_EPOCH   = 295
BSTAR          = .21674375E-3
MEAN_MOTION_DOT = .4618E-4
MEAN_MOTION_DDOT = 0

CCSDS_OMM_VERS = 2.0
CREATION_DATE  = 
ORIGINATOR     = 

OBJECT_NAME    = 2025-313AA
OBJECT_ID      = 2025-313AA
CENTER_NAME    = EARTH
REF_FRAME      = TEME
TIME_SYSTEM    = UTC
MEAN_ELEMENT_THEORY = SGP/SGP4

EPOCH          = 2026-01-16T21:32:46.311936
MEAN_MOTION    = 15.20386245
ECCENTRICITY   = .00154647
INCLINATION    = 97.4119
RA_OF_ASC_NODE = 94.0270
ARG_OF_PERICENTER = 170.9121
MEAN_ANOMALY   = 189.2397

EPHEMERIS_TYPE = 0
CLASSIFICATION_TYPE = U
NORAD_CAT_ID   = 67272
ELEMENT_SET_NO = 999
REV_AT_EPOCH   = 294
BSTAR          = .506108E-3
MEAN_MOTION_DOT = .10997E-3
MEAN_MOTION_DDOT = 0

CCSDS_OMM_VERS = 2.0
CREATION_DATE  = 
ORIGINATOR     = 

OBJECT_NAME    = 2025-313AB
OBJECT_ID      = 2025-313AB
CENTER_NAME    = EARTH
REF_FRAME      = TEME
TIME_SYSTEM    = UTC
MEAN_ELEMENT_THEORY = SGP/SGP4

EPOCH          = 2026-01-16T23:11:19.693824
MEAN_MOTION    = 15.20009989
ECCENTRICITY   = .00147109
INCLINATION    = 97.4133
RA_OF_ASC_NODE = 94.0932
ARG_OF_PERICENTER = 174.4804
MEAN_ANOMALY   = 185.6596

EPHEMERIS_TYPE = 0
CLASSIFICATION_TYPE = U
NORAD_CAT_ID   = 67273
ELEMENT_SET_NO = 999
REV_AT_EPOCH   = 295
BSTAR          = .149661E-3
MEAN_MOTION_DOT = .3164E-4
MEAN_MOTION_DDOT = 0

CCSDS_OMM_VERS = 2.0
CREATION_DATE  = 
ORIGINATOR     = 

OBJECT_NAME    = 2025-313AC
OBJECT_ID      = 2025-313AC
CENTER_NAME    = EARTH
REF_FRAME      = TEME
TIME_SYSTEM    = UTC
MEAN_ELEMENT_THEORY = SGP/SGP4

EPOCH          = 2026-01-16T21:34:37.564896
MEAN_MOTION    = 15.20184862
ECCENTRICITY   = .00154541
INCLINATION    = 97.4109
RA_OF_ASC_NODE = 94.0328
ARG_OF_PERICENTER = 169.8105
MEAN_ANOMALY   = 190.3447

EPHEMERIS_TYPE = 0
CLASSIFICATION_TYPE = U
NORAD_CAT_ID   = 67274
ELEMENT_SET_NO = 999
REV_AT_EPOCH   = 294
BSTAR          = .30225104E-3
MEAN_MOTION_DOT = .6498E-4
MEAN_MOTION_DDOT = 0

CCSDS_OMM_VERS = 2.0
CREATION_DATE  = 
ORIGINATOR     = 

OBJECT_NAME    = 2025-313AD
OBJECT_ID      = 2025-313AD
CENTER_NAME    = EARTH
REF_FRAME      = TEME
TIME_SYSTEM    = UTC
MEAN_ELEMENT_THEORY = SGP/SGP4

EPOCH          = 2026-01-16T23:08:24.351072
MEAN_MOTION    = 15.20247158
ECCENTRICITY   = .00146549
INCLINATION    = 97.4084
RA_OF_ASC_NODE = 94.0923
ARG_OF_PERICENTER = 172.5245
MEAN_ANOMALY   = 187.6211

EPHEMERIS_TYPE = 0
CLASSIFICATION_TYPE = U
NORAD_CAT_ID   = 67275
ELEMENT_SET_NO = 999
REV_AT_EPOCH   = 295
BSTAR          = .33492803E-3
MEAN_MOTION_DOT = .7219E-4
MEAN_MOTION_DDOT = 0

CCSDS_OMM_VERS = 2.0
CREATION_DATE  = 
ORIGINATOR     = 

OBJECT_NAME    = 2025-313AE
OBJECT_ID      = 2025-313AE
CENTER_NAME    = EARTH
REF_FRAME      = TEME
TIME_SYSTEM    = UTC
MEAN_ELEMENT_THEORY = SGP/SGP4

EPOCH          = 2026-01-16T23:08:21.490368
MEAN_MOTION    = 15.20246122
ECCENTRICITY   = .00146358
INCLINATION    = 97.4088
RA_OF_ASC_NODE = 94.0932
ARG_OF_PERICENTER = 172.4723
MEAN_ANOMALY   = 187.6735

EPHEMERIS_TYPE = 0
CLASSIFICATION_TYPE = U
NORAD_CAT_ID   = 67276
ELEMENT_SET_NO = 999
REV_AT_EPOCH   = 295
BSTAR          = .33121846E-3
MEAN_MOTION_DOT = .7138E-4
MEAN_MOTION_DDOT = 0

CCSDS_OMM_VERS = 2.0
CREATION_DATE  = 
ORIGINATOR     = 

OBJECT_NAME    = 2025-313AF
OBJECT_ID      = 2025-313AF
CENTER_NAME    = EARTH
REF_FRAME      = TEME
TIME_SYSTEM    = UTC
MEAN_ELEMENT_THEORY = SGP/SGP4

EPOCH          = 2026-01-16T23:08:44.049408
MEAN_MOTION    = 15.20210709
ECCENTRICITY   = .00146258
INCLINATION    = 97.4090
RA_OF_ASC_NODE = 94.0936
ARG_OF_PERICENTER = 172.2769
MEAN_ANOMALY   = 187.8694

EPHEMERIS_TYPE = 0
CLASSIFICATION_TYPE = U
NORAD_CAT_ID   = 67277
ELEMENT_SET_NO = 999
REV_AT_EPOCH   = 295
BSTAR          = .2935521E-3
MEAN_MOTION_DOT = .6311E-4
MEAN_MOTION_DDOT = 0

CCSDS_OMM_VERS = 2.0
CREATION_DATE  = 
ORIGINATOR     = 

OBJECT_NAME    = 2025-313AG
OBJECT_ID      = 2025-313AG
CENTER_NAME    = EARTH
REF_FRAME      = TEME
TIME_SYSTEM    = UTC
MEAN_ELEMENT_THEORY = SGP/SGP4

EPOCH          = 2026-01-16T21:33:41.172480
MEAN_MOTION    = 15.20226873
ECCENTRICITY   = .00145873
INCLINATION    = 97.4092
RA_OF_ASC_NODE = 94.0299
ARG_OF_PERICENTER = 172.3095
MEAN_ANOMALY   = 187.8367

EPHEMERIS_TYPE = 0
CLASSIFICATION_TYPE = U
NORAD_CAT_ID   = 67278
ELEMENT_SET_NO = 999
REV_AT_EPOCH   = 295
BSTAR          = .29235477E-3
MEAN_MOTION_DOT = .6288E-4
MEAN_MOTION_DDOT = 0

CCSDS_OMM_VERS = 2.0
CREATION_DATE  = 
ORIGINATOR     = 

OBJECT_NAME    = GALAPAGOS-UTE-SWSU
OBJECT_ID      = 2025-313AH
CENTER_NAME    = EARTH
REF_FRAME      = TEME
TIME_SYSTEM    = UTC
MEAN_ELEMENT_THEORY = SGP/SGP4

EPOCH          = 2026-01-16T21:32:40.885152
MEAN_MOTION    = 15.20304535
ECCENTRICITY   = .00151439
INCLINATION    = 97.4105
RA_OF_ASC_NODE = 94.0334
ARG_OF_PERICENTER = 169.5200
MEAN_ANOMALY   = 190.6354

EPHEMERIS_TYPE = 0
CLASSIFICATION_TYPE = U
NORAD_CAT_ID   = 67279
ELEMENT_SET_NO = 999
REV_AT_EPOCH   = 294
BSTAR          = .34142071E-3
MEAN_MOTION_DOT = .7374E-4
MEAN_MOTION_DDOT = 0

CCSDS_OMM_VERS = 2.0
CREATION_DATE  = 
ORIGINATOR     = 

OBJECT_NAME    = 2025-313AJ
OBJECT_ID      = 2025-313AJ
CENTER_NAME    = EARTH
REF_FRAME      = TEME
TIME_SYSTEM    = UTC
MEAN_ELEMENT_THEORY = SGP/SGP4

EPOCH          = 2026-01-16T23:01:19.462656
MEAN_MOTION    = 15.20594245
ECCENTRICITY   = .00140811
INCLINATION    = 97.4174
RA_OF_ASC_NODE = 94.1090
ARG_OF_PERICENTER = 165.8707
MEAN_ANOMALY   = 194.2925

EPHEMERIS_TYPE = 0
CLASSIFICATION_TYPE = U
NORAD_CAT_ID   = 67280
ELEMENT_SET_NO = 999
REV_AT_EPOCH   = 295
BSTAR          = .25142718E-3
MEAN_MOTION_DOT = .5455E-4
MEAN_MOTION_DDOT = 0

CCSDS_OMM_VERS = 2.0
CREATION_DATE  = 
ORIGINATOR     = 

OBJECT_NAME    = 2025-313AK
OBJECT_ID      = 2025-313AK
CENTER_NAME    = EARTH
REF_FRAME      = TEME
TIME_SYSTEM    = UTC
MEAN_ELEMENT_THEORY = SGP/SGP4

EPOCH          = 2026-01-16T22:59:39.703488
MEAN_MOTION    = 15.20686031
ECCENTRICITY   = .00128072
INCLINATION    = 97.4058
RA_OF_ASC_NODE = 94.0917
ARG_OF_PERICENTER = 164.6608
MEAN_ANOMALY   = 195.5018

EPHEMERIS_TYPE = 0
CLASSIFICATION_TYPE = U
NORAD_CAT_ID   = 67281
ELEMENT_SET_NO = 999
REV_AT_EPOCH   = 295
BSTAR          = .25656767E-3
MEAN_MOTION_DOT = .5581E-4
MEAN_MOTION_DDOT = 0

CCSDS_OMM_VERS = 2.0
CREATION_DATE  = 
ORIGINATOR     = 

OBJECT_NAME    = 2025-313AL
OBJECT_ID      = 2025-313AL
CENTER_NAME    = EARTH
REF_FRAME      = TEME
TIME_SYSTEM    = UTC
MEAN_ELEMENT_THEORY = SGP/SGP4

EPOCH          = 2026-01-16T22:52:57.058752
MEAN_MOTION    = 15.21065006
ECCENTRICITY   = .00115831
INCLINATION    = 97.4107
RA_OF_ASC_NODE = 94.0983
ARG_OF_PERICENTER = 163.5833
MEAN_ANOMALY   = 196.5780

EPHEMERIS_TYPE = 0
CLASSIFICATION_TYPE = U
NORAD_CAT_ID   = 67282
ELEMENT_SET_NO = 999
REV_AT_EPOCH   = 295
BSTAR          = .26227806E-3
MEAN_MOTION_DOT = .5768E-4
MEAN_MOTION_DDOT = 0

