2025-313Z               
1 67271U 25313Z   26016.96631007  .00004618  00000+0  21674-3 0  9995
2 67271  97.4116  94.0896 0015800 166.1571 194.0100 15.20028620  2957
2025-313AA              
1 67272U 25313AA  26016.89775824  .00010997  00000+0  50611-3 0  9994
2 67272  97.4119  94.0270 0015464 170.9121 189.2397 15.20386245  2940
2025-313AB              
1 67273U 25313AB  26016.96620016  .00003164  00000+0  14966-3 0  9996
2 67273  97.4133  94.0932 0014710 174.4804 185.6596 15.20009989  2951
2025-313AC              
1 67274U 25313AC  26016.89904589  .00006498  00000+0  30225-3 0  9998
2 67274  97.4109  94.0328 0015454 169.8105 190.3447 15.20184862  2943
2025-313AD              
1 67275U 25313AD  26016.96417073  .00007219  00000+0  33493-3 0  9996
2 67275  97.4084  94.0923 0014654 172.5245 187.6211 15.20247158  2951
2025-313AE              
1 67276U 25313AE  26016.96413762  .00007138  00000+0  33122-3 0  9997
2 67276  97.4088  94.0932 0014635 172.4723 187.6735 15.20246122  2956
2025-313AF              
1 67277U 25313AF  26016.96439872  .00006311  00000+0  29355-3 0  9993
2 67277  97.4090  94.0936 0014625 172.2769 187.8694 15.20210709  2959
2025-313AG              
1 67278U 25313AG  26016.89839320  .00006288  00000+0  29235-3 0  9998
2 67278  97.4092  94.0299 0014587 172.3095 187.8367 15.20226873  2950
GALAPAGOS-UTE-SWSU      
1 67279U 25313AH  26016.89769543  .00007374  00000+0  34142-3 0  9998
2 67279  97.4105  94.0334 0015143 169.5200 190.6354 15.20304535  2940
2025-313AJ              
1 67280U 25313AJ  26016.95925304  .00005455  00000+0  25143-3 0  9995
2 67280  97.4174  94.1090 0014081 165.8707 194.2925 15.20594245  2953
2025-313AK              
1 67281U 25313AK  26016.95809842  .00005581  00000+0  25657-3 0  9994
2 67281  97.4058  94.0917 0012807 164.6608 195.5018 15.20686031  2955
2025-313AL              
1 67282U 25313AL  26016.95343818  .00005768  00000+0  26228-3 0  9993
2 67282  97.4107  94.0983 0011583 163.5833 196.5780 15.21065006  2953
